{
"type": "FeatureCollection",
"crs": { "type": "name", "properties": { "name": "urn:ogc:def:crs:OGC:1.3:CRS84" } },
"features": [
{ "type": "Feature", "properties": { "Codigo": 27, "NombreEstacion": "Centro de Salud San Javier La Loma", "FechaInstalacion": "2010-01-25", "Estado": "I", "Longitude": -75.631123, "Latitude": 6.271891, "missing_days": 420.0, "missing_pct": 9.92 }, "geometry": { "type": "Point", "coordinates": [ -75.631123, 6.271891 ] } },
{ "type": "Feature", "properties": { "Codigo": 29, "NombreEstacion": "Escuela Marina Orth", "FechaInstalacion": "2010-01-25", "Estado": "A", "Longitude": -75.643773, "Latitude": 6.232313, "missing_days": 192.0, "missing_pct": 4.54 }, "geometry": { "type": "Point", "coordinates": [ -75.643773, 6.232313 ] } },
{ "type": "Feature", "properties": { "Codigo": 10, "NombreEstacion": "Escuela Rural El Boqueron", "FechaInstalacion": "2010-01-01", "Estado": "A", "Longitude": -75.657627, "Latitude": 6.315334, "missing_days": 164.0, "missing_pct": 3.88 }, "geometry": { "type": "Point", "coordinates": [ -75.657627, 6.315334 ] } },
{ "type": "Feature", "properties": { "Codigo": 5, "NombreEstacion": "I.E Santa Elena", "FechaInstalacion": "2010-01-01", "Estado": "A", "Longitude": -75.492144, "Latitude": 6.206213, "missing_days": 98.0, "missing_pct": 2.32 }, "geometry": { "type": "Point", "coordinates": [ -75.492144, 6.206213 ] } },
{ "type": "Feature", "properties": { "Codigo": 25, "NombreEstacion": "Escuela Rural Astilleros", "FechaInstalacion": "2010-02-05", "Estado": "A", "Longitude": -75.666884, "Latitude": 6.239765, "missing_days": 408.0, "missing_pct": 9.64 }, "geometry": { "type": "Point", "coordinates": [ -75.666884, 6.239765 ] } },
{ "type": "Feature", "properties": { "Codigo": 11, "NombreEstacion": "Escuela Rural Fabio Zuluaga", "FechaInstalacion": "2010-01-04", "Estado": "A", "Longitude": -75.651637, "Latitude": 6.273131, "missing_days": 193.0, "missing_pct": 4.56 }, "geometry": { "type": "Point", "coordinates": [ -75.651637, 6.273131 ] } },
{ "type": "Feature", "properties": { "Codigo": 18, "NombreEstacion": "Escuela El Salado", "FechaInstalacion": "2010-01-14", "Estado": "A", "Longitude": -75.671025, "Latitude": 6.211125, "missing_days": 157.0, "missing_pct": 3.71 }, "geometry": { "type": "Point", "coordinates": [ -75.671025, 6.211125 ] } },
{ "type": "Feature", "properties": { "Codigo": 23, "NombreEstacion": "Instituto Jorge Robledo", "FechaInstalacion": "2010-01-18", "Estado": "A", "Longitude": -75.581128, "Latitude": 6.258272, "missing_days": 145.0, "missing_pct": 3.43 }, "geometry": { "type": "Point", "coordinates": [ -75.581128, 6.258272 ] } },
{ "type": "Feature", "properties": { "Codigo": 20, "NombreEstacion": "Fundacion Hogares Claret", "FechaInstalacion": "2010-01-18", "Estado": "A", "Longitude": -75.611326, "Latitude": 6.294109, "missing_days": 245.0, "missing_pct": 5.79 }, "geometry": { "type": "Point", "coordinates": [ -75.611326, 6.294109 ] } },
{ "type": "Feature", "properties": { "Codigo": 7, "NombreEstacion": "Escuela Republica de Cuba", "FechaInstalacion": "2010-01-01", "Estado": "A", "Longitude": -75.5774, "Latitude": 6.2939, "missing_days": 277.0, "missing_pct": 6.55 }, "geometry": { "type": "Point", "coordinates": [ -75.5774, 6.2939 ] } },
{ "type": "Feature", "properties": { "Codigo": 8, "NombreEstacion": "Escuela CEDEPRO", "FechaInstalacion": "2010-01-01", "Estado": "A", "Longitude": -75.636239, "Latitude": 6.21959, "missing_days": 214.0, "missing_pct": 5.06 }, "geometry": { "type": "Point", "coordinates": [ -75.636239, 6.21959 ] } },
{ "type": "Feature", "properties": { "Codigo": 21, "NombreEstacion": "Escuela Rural San Jose de la Montana", "FechaInstalacion": "2010-01-18", "Estado": "A", "Longitude": -75.639127, "Latitude": 6.304081, "missing_days": 192.0, "missing_pct": 4.54 }, "geometry": { "type": "Point", "coordinates": [ -75.639127, 6.304081 ] } },
{ "type": "Feature", "properties": { "Codigo": 17, "NombreEstacion": "Escuela El Corazon ", "FechaInstalacion": "2010-01-28", "Estado": "A", "Longitude": -75.629765, "Latitude": 6.247227, "missing_days": 146.0, "missing_pct": 3.45 }, "geometry": { "type": "Point", "coordinates": [ -75.629765, 6.247227 ] } },
{ "type": "Feature", "properties": { "Codigo": 24, "NombreEstacion": "I.E Republica de Uruguay", "FechaInstalacion": "2010-01-18", "Estado": "A", "Longitude": -75.576902, "Latitude": 6.283694, "missing_days": 132.0, "missing_pct": 3.12 }, "geometry": { "type": "Point", "coordinates": [ -75.576902, 6.283694 ] } },
{ "type": "Feature", "properties": { "Codigo": 1, "NombreEstacion": "Casa de Gobierno Altavista", "FechaInstalacion": "2010-02-01", "Estado": "A", "Longitude": -75.6282, "Latitude": 6.2226, "missing_days": 138.0, "missing_pct": 3.26 }, "geometry": { "type": "Point", "coordinates": [ -75.6282, 6.2226 ] } },
{ "type": "Feature", "properties": { "Codigo": 12, "NombreEstacion": "I.E Concejo de Medellin", "FechaInstalacion": "2010-01-01", "Estado": "A", "Longitude": -75.6005, "Latitude": 6.258, "missing_days": 207.0, "missing_pct": 4.89 }, "geometry": { "type": "Point", "coordinates": [ -75.6005, 6.258 ] } },
{ "type": "Feature", "properties": { "Codigo": 19, "NombreEstacion": "Tecnologico Antioquia", "FechaInstalacion": "2011-03-22", "Estado": "A", "Longitude": -75.603738, "Latitude": 6.17832, "missing_days": 110.0, "missing_pct": 2.6 }, "geometry": { "type": "Point", "coordinates": [ -75.603738, 6.17832 ] } },
{ "type": "Feature", "properties": { "Codigo": 9, "NombreEstacion": "Instituto Pedro Justo Berrio", "FechaInstalacion": "2010-01-01", "Estado": "A", "Longitude": -75.610934, "Latitude": 6.237277, "missing_days": 96.0, "missing_pct": 2.27 }, "geometry": { "type": "Point", "coordinates": [ -75.610934, 6.237277 ] } },
{ "type": "Feature", "properties": { "Codigo": 2, "NombreEstacion": "Escuela Rural La Verde", "FechaInstalacion": "2010-01-06", "Estado": "A", "Longitude": -75.640688, "Latitude": 6.186856, "missing_days": 105.0, "missing_pct": 2.48 }, "geometry": { "type": "Point", "coordinates": [ -75.640688, 6.186856 ] } },
{ "type": "Feature", "properties": { "Codigo": 3, "NombreEstacion": "Escuela Rural Yarumalito", "FechaInstalacion": "2010-01-01", "Estado": "A", "Longitude": -75.694264, "Latitude": 6.233091, "missing_days": 189.0, "missing_pct": 4.47 }, "geometry": { "type": "Point", "coordinates": [ -75.694264, 6.233091 ] } },
{ "type": "Feature", "properties": { "Codigo": 28, "NombreEstacion": "Liceo Salazar y Herrera", "FechaInstalacion": "2010-01-25", "Estado": "A", "Longitude": -75.605833, "Latitude": 6.248666, "missing_days": 503.0, "missing_pct": 11.89 }, "geometry": { "type": "Point", "coordinates": [ -75.605833, 6.248666 ] } },
{ "type": "Feature", "properties": { "Codigo": 26, "NombreEstacion": "Escuela Rural El Plan", "FechaInstalacion": "2010-01-23", "Estado": "A", "Longitude": -75.51689, "Latitude": 6.20548, "missing_days": 382.0, "missing_pct": 9.03 }, "geometry": { "type": "Point", "coordinates": [ -75.51689, 6.20548 ] } },
{ "type": "Feature", "properties": { "Codigo": 6, "NombreEstacion": "Casa de Cultura Las Estancias", "FechaInstalacion": "2010-01-01", "Estado": "I", "Longitude": -75.538862, "Latitude": 6.234051, "missing_days": null, "missing_pct": null }, "geometry": { "type": "Point", "coordinates": [ -75.538862, 6.234051 ] } },
{ "type": "Feature", "properties": { "Codigo": 14, "NombreEstacion": "Escuela El Triunfo ", "FechaInstalacion": "2010-01-01", "Estado": "A", "Longitude": -75.584912, "Latitude": 6.306341, "missing_days": 407.0, "missing_pct": 9.62 }, "geometry": { "type": "Point", "coordinates": [ -75.584912, 6.306341 ] } },
{ "type": "Feature", "properties": { "Codigo": 15, "NombreEstacion": "Colegio San Lucas ", "FechaInstalacion": "2010-01-01", "Estado": "A", "Longitude": -75.566532, "Latitude": 6.181003, "missing_days": 153.0, "missing_pct": 3.62 }, "geometry": { "type": "Point", "coordinates": [ -75.566532, 6.181003 ] } },
{ "type": "Feature", "properties": { "Codigo": 16, "NombreEstacion": "I.E Ramon Munera Lopera", "FechaInstalacion": "2010-01-01", "Estado": "A", "Longitude": -75.543435, "Latitude": 6.269766, "missing_days": 164.0, "missing_pct": 3.88 }, "geometry": { "type": "Point", "coordinates": [ -75.543435, 6.269766 ] } },
{ "type": "Feature", "properties": { "Codigo": 22, "NombreEstacion": "Escuela La Capilla del Rosario ", "FechaInstalacion": "2010-01-28", "Estado": "A", "Longitude": -75.602037, "Latitude": 6.205189, "missing_days": 51.0, "missing_pct": 1.21 }, "geometry": { "type": "Point", "coordinates": [ -75.602037, 6.205189 ] } },
{ "type": "Feature", "properties": { "Codigo": 4, "NombreEstacion": "I.E Hector Rogelio Montoya", "FechaInstalacion": "2010-01-01", "Estado": "A", "Longitude": -75.690804, "Latitude": 6.343086, "missing_days": 241.0, "missing_pct": 5.69 }, "geometry": { "type": "Point", "coordinates": [ -75.690804, 6.343086 ] } },
{ "type": "Feature", "properties": { "Codigo": 56, "NombreEstacion": "I.E Inem Jose Felix de Restrepo Sede Santa Catalina ", "FechaInstalacion": "2011-03-11", "Estado": "A", "Longitude": -75.560961, "Latitude": 6.199783, "missing_days": 211.0, "missing_pct": 4.99 }, "geometry": { "type": "Point", "coordinates": [ -75.560961, 6.199783 ] } },
{ "type": "Feature", "properties": { "Codigo": 55, "NombreEstacion": "I.E Reino de Belgica", "FechaInstalacion": "2011-03-23", "Estado": "A", "Longitude": -75.539758, "Latitude": 6.284792, "missing_days": 363.0, "missing_pct": 8.58 }, "geometry": { "type": "Point", "coordinates": [ -75.539758, 6.284792 ] } },
{ "type": "Feature", "properties": { "Codigo": 45, "NombreEstacion": "AMVA", "FechaInstalacion": "2010-09-01", "Estado": "A", "Longitude": -75.574031, "Latitude": 6.242238, "missing_days": 165.0, "missing_pct": 3.9 }, "geometry": { "type": "Point", "coordinates": [ -75.574031, 6.242238 ] } },
{ "type": "Feature", "properties": { "Codigo": 33, "NombreEstacion": "Santa Maria Goretti", "FechaInstalacion": "2010-01-28", "Estado": "A", "Longitude": -75.637469, "Latitude": 6.094458, "missing_days": 481.0, "missing_pct": 11.37 }, "geometry": { "type": "Point", "coordinates": [ -75.637469, 6.094458 ] } },
{ "type": "Feature", "properties": { "Codigo": 44, "NombreEstacion": "I.E Villa Turbay", "FechaInstalacion": "2010-04-19", "Estado": "A", "Longitude": -75.53024, "Latitude": 6.23563, "missing_days": 488.0, "missing_pct": 11.53 }, "geometry": { "type": "Point", "coordinates": [ -75.53024, 6.23563 ] } },
{ "type": "Feature", "properties": { "Codigo": 30, "NombreEstacion": "Salon Social Barbosa", "FechaInstalacion": "2010-01-29", "Estado": "A", "Longitude": -75.33045, "Latitude": 6.436867, "missing_days": 195.0, "missing_pct": 4.61 }, "geometry": { "type": "Point", "coordinates": [ -75.33045, 6.436867 ] } },
{ "type": "Feature", "properties": { "Codigo": 31, "NombreEstacion": "Colegio Jose Manuel Sierra", "FechaInstalacion": "2010-01-29", "Estado": "A", "Longitude": -75.445833, "Latitude": 6.375833, "missing_days": 455.0, "missing_pct": 10.75 }, "geometry": { "type": "Point", "coordinates": [ -75.445833, 6.375833 ] } },
{ "type": "Feature", "properties": { "Codigo": 32, "NombreEstacion": "Colegio Presbitero Bernardo Montoya ", "FechaInstalacion": "2010-01-30", "Estado": "A", "Longitude": -75.498851, "Latitude": 6.353971, "missing_days": 416.0, "missing_pct": 9.83 }, "geometry": { "type": "Point", "coordinates": [ -75.498851, 6.353971 ] } },
{ "type": "Feature", "properties": { "Codigo": 34, "NombreEstacion": "I.E La Doctora", "FechaInstalacion": "2010-02-02", "Estado": "A", "Longitude": -75.61315, "Latitude": 6.14144, "missing_days": 218.0, "missing_pct": 5.15 }, "geometry": { "type": "Point", "coordinates": [ -75.61315, 6.14144 ] } },
{ "type": "Feature", "properties": { "Codigo": 36, "NombreEstacion": "Colegio Concejo de Itagui", "FechaInstalacion": "2010-03-26", "Estado": "A", "Longitude": -75.6438, "Latitude": 6.16793, "missing_days": 121.0, "missing_pct": 2.86 }, "geometry": { "type": "Point", "coordinates": [ -75.6438, 6.16793 ] } },
{ "type": "Feature", "properties": { "Codigo": 37, "NombreEstacion": "Liceo Fernando Velez", "FechaInstalacion": "2010-02-02", "Estado": "A", "Longitude": -75.5678, "Latitude": 6.33755, "missing_days": 127.0, "missing_pct": 3.0 }, "geometry": { "type": "Point", "coordinates": [ -75.5678, 6.33755 ] } },
{ "type": "Feature", "properties": { "Codigo": 38, "NombreEstacion": "Casa Cultura La Estrella", "FechaInstalacion": "2010-01-28", "Estado": "I", "Longitude": -75.644472, "Latitude": 6.155527, "missing_days": null, "missing_pct": null }, "geometry": { "type": "Point", "coordinates": [ -75.644472, 6.155527 ] } },
{ "type": "Feature", "properties": { "Codigo": 39, "NombreEstacion": "I.E Pedro Octavio Amado", "FechaInstalacion": "2010-01-28", "Estado": "A", "Longitude": -75.61056, "Latitude": 6.22179, "missing_days": 122.0, "missing_pct": 2.88 }, "geometry": { "type": "Point", "coordinates": [ -75.61056, 6.22179 ] } },
{ "type": "Feature", "properties": { "Codigo": 40, "NombreEstacion": "I.E Ciro Mendia", "FechaInstalacion": "2010-02-05", "Estado": "A", "Longitude": -75.55587, "Latitude": 6.29009, "missing_days": 155.0, "missing_pct": 3.66 }, "geometry": { "type": "Point", "coordinates": [ -75.55587, 6.29009 ] } },
{ "type": "Feature", "properties": { "Codigo": 41, "NombreEstacion": "Comisaria El Poblado", "FechaInstalacion": "2010-01-28", "Estado": "A", "Longitude": -75.56616, "Latitude": 6.20661, "missing_days": 68.0, "missing_pct": 1.61 }, "geometry": { "type": "Point", "coordinates": [ -75.56616, 6.20661 ] } },
{ "type": "Feature", "properties": { "Codigo": 42, "NombreEstacion": "Escuela Rural Piedras Gordas", "FechaInstalacion": "2010-02-05", "Estado": "A", "Longitude": -75.49844, "Latitude": 6.23637, "missing_days": 336.0, "missing_pct": 7.94 }, "geometry": { "type": "Point", "coordinates": [ -75.49844, 6.23637 ] } },
{ "type": "Feature", "properties": { "Codigo": 43, "NombreEstacion": "Escuela Rural Quebrada Larga", "FechaInstalacion": "2010-05-03", "Estado": "A", "Longitude": -75.685737, "Latitude": 6.20556, "missing_days": 351.0, "missing_pct": 8.29 }, "geometry": { "type": "Point", "coordinates": [ -75.685737, 6.20556 ] } },
{ "type": "Feature", "properties": { "Codigo": 48, "NombreEstacion": "Escuela Rural Santa Angela", "FechaInstalacion": "2010-05-14", "Estado": "A", "Longitude": -75.59467, "Latitude": 6.30446, "missing_days": 87.0, "missing_pct": 2.06 }, "geometry": { "type": "Point", "coordinates": [ -75.59467, 6.30446 ] } },
{ "type": "Feature", "properties": { "Codigo": 13, "NombreEstacion": "I.E Maria de los Angeles Cano", "FechaInstalacion": "2010-01-01", "Estado": "I", "Longitude": -75.544722, "Latitude": 6.292305, "missing_days": null, "missing_pct": null }, "geometry": { "type": "Point", "coordinates": [ -75.544722, 6.292305 ] } },
{ "type": "Feature", "properties": { "Codigo": 35, "NombreEstacion": "I.E Joaquin Vallejo Arbelaez ", "FechaInstalacion": "2010-01-28", "Estado": "A", "Longitude": -75.542478, "Latitude": 6.255245, "missing_days": 79.0, "missing_pct": 1.87 }, "geometry": { "type": "Point", "coordinates": [ -75.542478, 6.255245 ] } },
{ "type": "Feature", "properties": { "Codigo": 46, "NombreEstacion": "I.E La Milagrosa ", "FechaInstalacion": "2010-04-28", "Estado": "P", "Longitude": -75.554, "Latitude": 6.23532, "missing_days": 229.0, "missing_pct": 5.41 }, "geometry": { "type": "Point", "coordinates": [ -75.554, 6.23532 ] } },
{ "type": "Feature", "properties": { "Codigo": 49, "NombreEstacion": "Colegio Latino (Av. Las Palmas)", "FechaInstalacion": "2010-09-08", "Estado": "A", "Longitude": -75.5459, "Latitude": 6.212167, "missing_days": 545.0, "missing_pct": 12.88 }, "geometry": { "type": "Point", "coordinates": [ -75.5459, 6.212167 ] } },
{ "type": "Feature", "properties": { "Codigo": 51, "NombreEstacion": "Represa La Garcia ", "FechaInstalacion": "2011-02-21", "Estado": "A", "Longitude": -75.6002, "Latitude": 6.3619, "missing_days": 190.0, "missing_pct": 4.49 }, "geometry": { "type": "Point", "coordinates": [ -75.6002, 6.3619 ] } },
{ "type": "Feature", "properties": { "Codigo": 54, "NombreEstacion": "I.E Juan Maria Cespedes", "FechaInstalacion": "2011-03-23", "Estado": "A", "Longitude": -75.597071, "Latitude": 6.235374, "missing_days": 164.0, "missing_pct": 3.88 }, "geometry": { "type": "Point", "coordinates": [ -75.597071, 6.235374 ] } },
{ "type": "Feature", "properties": { "Codigo": 50, "NombreEstacion": "Universidad CES (Sabaneta)", "FechaInstalacion": "2011-02-11", "Estado": "A", "Longitude": -75.604745, "Latitude": 6.157871, "missing_days": 348.0, "missing_pct": 8.22 }, "geometry": { "type": "Point", "coordinates": [ -75.604745, 6.157871 ] } },
{ "type": "Feature", "properties": { "Codigo": 52, "NombreEstacion": "Centro Veterinario y de Zootecnia CES", "FechaInstalacion": "2011-03-06", "Estado": "A", "Longitude": -75.561747, "Latitude": 6.144963, "missing_days": 561.0, "missing_pct": 13.26 }, "geometry": { "type": "Point", "coordinates": [ -75.561747, 6.144963 ] } },
{ "type": "Feature", "properties": { "Codigo": 53, "NombreEstacion": "Colegio Eduardo Santos", "FechaInstalacion": "2011-03-11", "Estado": "A", "Longitude": -75.62938, "Latitude": 6.25865, "missing_days": 186.0, "missing_pct": 4.4 }, "geometry": { "type": "Point", "coordinates": [ -75.62938, 6.25865 ] } },
{ "type": "Feature", "properties": { "Codigo": 47, "NombreEstacion": "Villa Nueva Sede La Luz", "FechaInstalacion": "2010-05-03", "Estado": "A", "Longitude": -75.49659, "Latitude": 6.388517, "missing_days": 237.0, "missing_pct": 5.6 }, "geometry": { "type": "Point", "coordinates": [ -75.49659, 6.388517 ] } },
{ "type": "Feature", "properties": { "Codigo": 60, "NombreEstacion": "Torre SIATA", "FechaInstalacion": "2010-12-19", "Estado": "A", "Longitude": -75.588697, "Latitude": 6.259195, "missing_days": 135.0, "missing_pct": 3.19 }, "geometry": { "type": "Point", "coordinates": [ -75.588697, 6.259195 ] } },
{ "type": "Feature", "properties": { "Codigo": 58, "NombreEstacion": "Escuela Luis Javier Garcia Isaza", "FechaInstalacion": "2012-03-23", "Estado": "A", "Longitude": -75.62417, "Latitude": 6.04787, "missing_days": 305.0, "missing_pct": 7.21 }, "geometry": { "type": "Point", "coordinates": [ -75.62417, 6.04787 ] } },
{ "type": "Feature", "properties": { "Codigo": 61, "NombreEstacion": "Planta de Agua Bocatoma", "FechaInstalacion": "2012-03-20", "Estado": "A", "Longitude": -75.643, "Latitude": 6.119794, "missing_days": 267.0, "missing_pct": 6.31 }, "geometry": { "type": "Point", "coordinates": [ -75.643, 6.119794 ] } },
{ "type": "Feature", "properties": { "Codigo": 62, "NombreEstacion": "Gimnasio Cantabria", "FechaInstalacion": "2012-03-07", "Estado": "A", "Longitude": -75.644804, "Latitude": 6.137361, "missing_days": 332.0, "missing_pct": 7.84 }, "geometry": { "type": "Point", "coordinates": [ -75.644804, 6.137361 ] } },
{ "type": "Feature", "properties": { "Codigo": 57, "NombreEstacion": "Escuela la Clara", "FechaInstalacion": "2012-03-23", "Estado": "A", "Longitude": -75.61859, "Latitude": 6.042017, "missing_days": 212.0, "missing_pct": 5.01 }, "geometry": { "type": "Point", "coordinates": [ -75.61859, 6.042017 ] } },
{ "type": "Feature", "properties": { "Codigo": 64, "NombreEstacion": "Ecoparque La Romera", "FechaInstalacion": "2012-09-05", "Estado": "A", "Longitude": -75.597933, "Latitude": 6.119807, "missing_days": 335.0, "missing_pct": 7.92 }, "geometry": { "type": "Point", "coordinates": [ -75.597933, 6.119807 ] } },
{ "type": "Feature", "properties": { "Codigo": 65, "NombreEstacion": "I.E Las Lomitas", "FechaInstalacion": "2012-08-09", "Estado": "A", "Longitude": -75.601278, "Latitude": 6.143111, "missing_days": 245.0, "missing_pct": 5.79 }, "geometry": { "type": "Point", "coordinates": [ -75.601278, 6.143111 ] } },
{ "type": "Feature", "properties": { "Codigo": 66, "NombreEstacion": "I.E San Andres (Sede El Socorro)", "FechaInstalacion": "2012-05-09", "Estado": "A", "Longitude": -75.452086, "Latitude": 6.410358, "missing_days": 225.0, "missing_pct": 5.32 }, "geometry": { "type": "Point", "coordinates": [ -75.452086, 6.410358 ] } },
{ "type": "Feature", "properties": { "Codigo": 67, "NombreEstacion": "I.E Juan Echeverry Abad", "FechaInstalacion": "2012-04-16", "Estado": "I", "Longitude": -75.614806, "Latitude": 6.185339, "missing_days": null, "missing_pct": null }, "geometry": { "type": "Point", "coordinates": [ -75.614806, 6.185339 ] } },
{ "type": "Feature", "properties": { "Codigo": 70, "NombreEstacion": "Indural Km6 Medellin-Bogota", "FechaInstalacion": "2012-06-25", "Estado": "A", "Longitude": -75.523339, "Latitude": 6.326838, "missing_days": 185.0, "missing_pct": 4.37 }, "geometry": { "type": "Point", "coordinates": [ -75.523339, 6.326838 ] } },
{ "type": "Feature", "properties": { "Codigo": 208, "NombreEstacion": "Prueba 208", "FechaInstalacion": "2012-12-03", "Estado": "I", "Longitude": -75.58864, "Latitude": 6.259215, "missing_days": null, "missing_pct": null }, "geometry": { "type": "Point", "coordinates": [ -75.58864, 6.259215 ] } },
{ "type": "Feature", "properties": { "Codigo": 72, "NombreEstacion": "Jose Miguel de Restrepo", "FechaInstalacion": "2012-06-25", "Estado": "A", "Longitude": -75.510159, "Latitude": 6.377454, "missing_days": 290.0, "missing_pct": 6.85 }, "geometry": { "type": "Point", "coordinates": [ -75.510159, 6.377454 ] } },
{ "type": "Feature", "properties": { "Codigo": 210, "NombreEstacion": "Telemedellin-Poblado", "FechaInstalacion": "2012-12-07", "Estado": "I", "Longitude": -75.57581, "Latitude": 6.18699, "missing_days": null, "missing_pct": null }, "geometry": { "type": "Point", "coordinates": [ -75.57581, 6.18699 ] } },
{ "type": "Feature", "properties": { "Codigo": 211, "NombreEstacion": "La Ladera", "FechaInstalacion": "2012-12-10", "Estado": "A", "Longitude": -75.554027, "Latitude": 6.25119, "missing_days": 201.0, "missing_pct": 4.75 }, "geometry": { "type": "Point", "coordinates": [ -75.554027, 6.25119 ] } }
]
}
